IRIDIUM 7 [-]           
1 24793U 97020B   24049.44516879  .00000886  00000+0  30414-3 0  9992
2 24793  86.3980  19.9460 0001916  84.1942 275.9473 14.35084256402354
IRIDIUM 5 [-]           
1 24795U 97020D   24049.63746328  .00006585  00000+0  64209-3 0  9990
2 24795  86.3937 305.5319 0127385  67.0274 294.4331 14.86292353413303
IRIDIUM 4 [-]           
1 24796U 97020E   24049.45906882  .00000952  00000+0  32115-3 0  9997
2 24796  86.3981  17.1415 0002171  82.0219 278.1224 14.35996566402889
IRIDIUM 914 [-]         
1 24836U 97030A   24049.46195238  .00001112  00000+0  34832-3 0  9996
2 24836  86.3942  27.1592 0003376  55.8273 304.3245 14.39832696537357
IRIDIUM 16 [-]          
1 24841U 97030F   24049.54060269  .00000929  00000+0  30253-3 0  9994
2 24841  86.4002  48.7982 0001861 149.5923 210.5383 14.37718262397347
IRIDIUM 911 [-]         
1 24842U 97030G   24049.48774795  .00001300  00000+0  35704-3 0  9994
2 24842  86.4429  48.0476 0012069 274.0639  85.9184 14.46303781404991
IRIDIUM 17 [-]          
1 24870U 97034B   24049.57334872  .00000726  00000+0  23941-3 0  9998
2 24870  86.3906  78.4370 0003213 119.8166 240.3351 14.36811075393970
IRIDIUM 920 [-]         
1 24871U 97034C   24049.54350229  .00000865  00000+0  26551-3 0  9994
2 24871  86.3930  58.7908 0009689 234.1101 125.9200 14.40535085396781
